[{"OBJECT_NAME":"STARLINK-34851","OBJECT_ID":"2025-259AB","EPOCH":"2026-03-09T22:23:45.640032","MEAN_MOTION":15.27600809,"ECCENTRICITY":0.00018606,"INCLINATION":43.0025,"RA_OF_ASC_NODE":273.3864,"ARG_OF_PERICENTER":268.9338,"MEAN_ANOMALY":91.13,"EPHEMERIS_TYPE":0,"CLASSIFICATION_TYPE":"U","NORAD_CAT_ID":66447,"ELEMENT_SET_NO":999,"REV_AT_EPOCH":1941,"BSTAR":0.00088989614,"MEAN_MOTION_DOT":0.00024322,"MEAN_MOTION_DDOT":0},{"OBJECT_NAME":"SL-3 R\/B","OBJECT_ID":"1982-027B","EPOCH":"2026-03-09T22:44:40.208640","MEAN_MOTION":15.28335844,"ECCENTRICITY":0.00065199,"INCLINATION":81.188,"RA_OF_ASC_NODE":37.4466,"ARG_OF_PERICENTER":276.581,"MEAN_ANOMALY":83.4683,"EPHEMERIS_TYPE":0,"CLASSIFICATION_TYPE":"U","NORAD_CAT_ID":13121,"ELEMENT_SET_NO":999,"REV_AT_EPOCH":39859,"BSTAR":0.00030526741,"MEAN_MOTION_DOT":8.453e-5,"MEAN_MOTION_DDOT":0}]
